NORAD_CAT_ID,OBJECT_NAME,OBJECT_TYPE,EPOCH,MEAN_MOTION,ECCENTRICITY,INCLINATION,RA_OF_ASC_NODE,ARG_OF_PERICENTER,MEAN_ANOMALY,BSTAR,MEAN_MOTION_DOT,MEAN_MOTION_DDOT,TLE_LINE0,TLE_LINE1,TLE_LINE2,SEMIMAJOR_AXIS,PERIOD,APOGEE,PERIGEE,DECAYED
55677.0,STARLINK-5324,PAYLOAD,2023-09-27 01:46:50,15.69904497,0.0002465,70.0002,247.7095,247.3856,112.7079,-4.4431e-05,-5.546e-05,0.0,0 STARLINK-5324,1 55677U 23021BB  23270.07419634 -.00005546  00000-0 -44431-4 0  9998,2 55677  70.0002 247.7095 0002465 247.3856 112.7079 15.69904497 35275,6737.307,91.725,360.833,357.511,0.0
55677.0,STARLINK-5324,PAYLOAD,2023-09-27 07:53:51,15.69903588,0.000305,70.0004,246.9934,266.0469,94.0378,-3.8506e-05,-4.836e-05,0.0,0 STARLINK-5324,1 55677U 23021BB  23270.32906597 -.00004836  00000-0 -38506-4 0  9992,2 55677  70.0004 246.9934 0003050 266.0469  94.0378 15.69903588 35622,6737.31,91.725,361.23,357.12,0.0
55677.0,STARLINK-5324,PAYLOAD,2023-09-28 02:14:52,15.69923769,0.0003037,70.0,244.8423,258.5031,101.5824,3.9786e-05,4.574e-05,0.0,0 STARLINK-5324,1 55677U 23021BB  23271.09365900  .00004574  00000-0  39786-4 0  9992,2 55677  70.0000 244.8423 0003037 258.5031 101.5824 15.69923769 35436,6737.252,91.724,361.163,357.071,0.0
55677.0,STARLINK-5324,PAYLOAD,2023-09-28 08:21:52,15.69925459,0.0003062,70.0002,244.1253,267.0356,93.049,4.2474e-05,4.898e-05,0.0,0 STARLINK-5324,1 55677U 23021BB  23271.34852612  .00004898  00000-0  42474-4 0  9998,2 55677  70.0002 244.1253 0003062 267.0356  93.0490 15.69925459 35785,6737.247,91.724,361.175,357.049,0.0
55677.0,STARLINK-5324,PAYLOAD,2023-09-29 08:49:54,15.69929704,0.0002753,70.0012,241.259,272.6997,87.3883,4.0434e-06,2.74e-06,0.0,0 STARLINK-5324,1 55677U 23021BB  23272.36799007  .00000274  00000-0  40434-5 0  9998,2 55677  70.0012 241.2590 0002753 272.6997  87.3883 15.69929704 35630,6737.235,91.724,360.955,357.245,0.0
55677.0,STARLINK-5324,PAYLOAD,2023-09-30 01:39:11,15.6989965,0.0003394,69.9998,239.289,272.0862,87.9945,-6.2668e-05,-7.733e-05,0.0,0 STARLINK-5324,1 55677U 23021BB  23273.06888308 -.00007733  00000-0 -62668-4 0  9990,2 55677  69.9998 239.2890 0003394 272.0862  87.9945 15.69899650 35740,6737.321,91.726,361.473,356.899,0.0
55677.0,STARLINK-5324,PAYLOAD,2023-09-30 07:46:11,15.69915997,0.0003005,70.0008,238.5732,262.8914,97.194,-1.9096e-05,-2.507e-05,0.0,0 STARLINK-5324,1 55677U 23021BB  23273.32374673 -.00002507  00000-0 -19096-4 0  9995,2 55677  70.0008 238.5732 0003005 262.8914  97.1940 15.69915997 35781,6737.274,91.725,361.164,357.115,0.0
55677.0,STARLINK-5324,PAYLOAD,2023-09-30 15:24:56,15.69929359,0.0003179,70.0011,237.6775,270.051,90.0322,1.8805e-05,2.049e-05,0.0,0 STARLINK-5324,1 55677U 23021BB  23273.64232433  .00002049  00000-0  18805-4 0  9993,2 55677  70.0011 237.6775 0003179 270.0510  90.0322 15.69929359 35836,6737.236,91.724,361.243,356.959,0.0
55677.0,STARLINK-5324,PAYLOAD,2023-10-01 06:42:27,15.69929683,0.0003387,70.0002,235.8865,266.6271,93.4537,1.4253e-05,1.502e-05,0.0,0 STARLINK-5324,1 55677U 23021BB  23274.27948941  .00001502  00000-0  14253-4 0  9997,2 55677  70.0002 235.8865 0003387 266.6271  93.4537 15.69929683 36243,6737.235,91.724,361.382,356.818,0.0
55677.0,STARLINK-5324,PAYLOAD,2023-10-01 20:28:14,15.69921304,0.0003002,70.0009,234.2745,267.8438,92.2414,1.7684e-06,0.0,0.0,0 STARLINK-5324,1 55677U 23021BB  23274.85294620  .00000000  00000-0  17684-5 0  9993,2 55677  70.0009 234.2745 0003002 267.8438  92.2414 15.69921304 36335,6737.259,91.724,361.147,357.102,0.0
55677.0,STARLINK-5324,PAYLOAD,2023-10-02 01:03:30,15.69914377,0.0003082,70.0004,233.7368,267.5715,92.5128,3.5442e-05,4.049e-05,0.0,0 STARLINK-5324,1 55677U 23021BB  23275.04410030  .00004049  00000-0  35442-4 0  9998,2 55677  70.0004 233.7368 0003082 267.5715  92.5128 15.69914377 36054,6737.279,91.725,361.22,357.068,0.0
55677.0,STARLINK-5324,PAYLOAD,2023-10-02 20:56:21,15.6979029,0.0003617,69.9995,231.4085,262.2968,97.7817,-0.00030837,-0.00036927,0.0,0 STARLINK-5324,1 55677U 23021BB  23275.87247070 -.00036927  00000-0 -30837-3 0  9995,2 55677  69.9995 231.4085 0003617 262.2968  97.7817 15.69790290 36189,6737.634,91.732,361.936,357.062,0.0
55677.0,STARLINK-5324,PAYLOAD,2023-10-03 00:00:03,15.69574913,0.0003299,69.9993,231.0511,269.0076,91.0741,-0.00063677,-0.0007501,0.0,0 STARLINK-5324,1 55677U 23021BB  23276.00004237 -.00075010  00000-0 -63677-3 0  9991,2 55677  69.9993 231.0511 0003299 269.0076  91.0741 15.69574913 36206,6738.25,91.745,362.338,357.892,0.0
55677.0,STARLINK-5324,PAYLOAD,2023-10-03 07:39:31,15.69191947,0.0003247,69.9985,230.1584,266.2605,93.8219,-0.00078234,-0.00090502,0.0,0 STARLINK-5324,1 55677U 23021BB  23276.31911978 -.00090502  00000-0 -78234-3 0  9992,2 55677  69.9985 230.1584 0003247 266.2605  93.8219 15.69191947 36254,6739.347,91.767,363.4,359.023,0.0
55677.0,STARLINK-5324,PAYLOAD,2023-10-04 23:29:47,15.66950926,0.0001123,69.9982,225.5127,261.5052,98.6015,-0.0026927,-0.00277472,0.0,0 STARLINK-5324,1 55677U 23021BB  23277.97902226 -.00277472  00000-0 -26927-2 0  9995,2 55677  69.9982 225.5127 0001123 261.5052  98.6015 15.66950926 36521,6745.771,91.898,368.393,366.878,0.0
55677.0,STARLINK-5324,PAYLOAD,2023-10-05 22:00:00,15.63512745,0.0003518,70.0009,222.8946,260.8385,341.3368,-0.010958,-0.00925964,0.0,0 STARLINK-5324,1 55677U 23021BB  23278.91667824 -.00925964  00000-0 -10958-1 0  9994,2 55677  70.0009 222.8946 0003518 260.8385 341.3368 15.63512745 36668,6755.656,92.1,379.898,375.145,0.0
55677.0,STARLINK-5324,PAYLOAD,2023-10-06 14:00:01,15.62182604,0.0003581,70.0002,221.0394,264.6186,127.3169,-0.01134,-0.00910951,0.0,0 STARLINK-5324,1 55677U 23021BB  23279.58335648 -.00910951  00000-0 -11340-1 0  9990,2 55677  70.0002 221.0394 0003581 264.6186 127.3169 15.62182604  6013,6759.491,92.179,383.776,378.935,0.0
55677.0,STARLINK-5324,PAYLOAD,2023-10-06 22:00:01,15.61557575,0.0003438,70.0004,220.1134,263.2967,202.2885,-0.011902,-0.00931073,0.0,0 STARLINK-5324,1 55677U 23021BB  23279.91668981 -.00931073  00000-0 -11902-1 0  9998,2 55677  70.0004 220.1134 0003438 263.2967 202.2885 15.61557575 36822,6761.294,92.216,385.484,380.835,0.0
55677.0,STARLINK-5324,PAYLOAD,2023-10-07 14:00:01,15.60221165,0.0003374,70.0002,218.2643,264.7157,345.809,-0.012135,-0.00904085,0.0,0 STARLINK-5324,1 55677U 23021BB  23280.58334491 -.00904085  00000-0 -12135-1 0  9991,2 55677  70.0002 218.2643 0003374 264.7157 345.8090 15.60221165  5818,6765.155,92.295,389.302,384.737,0.0
55677.0,STARLINK-5324,PAYLOAD,2023-10-07 22:00:00,15.59610841,0.0003578,70.0004,217.3412,263.0685,58.7547,-0.013062,-0.00946459,0.0,0 STARLINK-5324,1 55677U 23021BB  23280.91667824 -.00946459  00000-0 -13062-1 0  9998,2 55677  70.0004 217.3412 0003578 263.0685  58.7547 15.59610841  5861,6766.92,92.331,391.206,386.363,0.0
55677.0,STARLINK-5324,PAYLOAD,2023-10-08 06:00:00,15.58909368,0.0003493,69.9999,216.4187,270.3264,122.0547,-0.012289,-0.00873646,0.0,0 STARLINK-5324,1 55677U 23021BB  23281.25001157 -.00873646  00000-0 -12289-1 0  9994,2 55677  69.9999 216.4187 0003493 270.3264 122.0547 15.58909368 37033,6768.949,92.372,393.179,388.45,0.0
55677.0,STARLINK-5324,PAYLOAD,2023-10-08 14:00:01,15.58252217,0.0003473,69.9999,215.4972,265.3092,196.8305,-0.012734,-0.008822,0.0,0 STARLINK-5324,1 55677U 23021BB  23281.58334491 -.00882200  00000-0 -12734-1 0  9991,2 55677  69.9999 215.4972 0003473 265.3092 196.8305 15.58252217  5978,6770.852,92.411,395.069,390.366,0.0
55677.0,STARLINK-5324,PAYLOAD,2023-10-08 22:00:00,15.57647192,0.0003476,70.0004,214.5767,261.693,269.3981,-0.013912,-0.00936608,0.0,0 STARLINK-5324,1 55677U 23021BB  23281.91667824 -.00936608  00000-0 -13912-1 0  9998,2 55677  70.0004 214.5767 0003476 261.6930 269.3981 15.57647192 37131,6772.605,92.447,396.825,392.116,0.0
55677.0,STARLINK-5324,PAYLOAD,2023-10-09 14:00:01,15.56296688,0.0003535,70.0001,212.7381,261.2392,45.4719,-0.013755,-0.00885245,0.0,0 STARLINK-5324,1 55677U 23021BB  23282.58334491 -.00885245  00000-0 -13755-1 0  9998,2 55677  70.0001 212.7381 0003535 261.2392  45.4719 15.56296688  6120,6776.523,92.527,400.783,395.992,0.0
55677.0,STARLINK-5324,PAYLOAD,2023-10-09 22:00:00,15.5569698,0.0003646,70.0003,211.8203,263.9472,109.3646,-0.015208,-0.00950534,0.0,0 STARLINK-5324,1 55677U 23021BB  23282.91667824 -.00950534  00000-0 -15208-1 0  9993,2 55677  70.0003 211.8203 0003646 263.9472 109.3646 15.55696980  5986,6778.264,92.563,402.601,397.658,0.0
55677.0,STARLINK-5324,PAYLOAD,2023-10-10 06:00:02,15.54999028,0.0003468,70.0001,210.9031,270.356,168.883,-0.01429,-0.00877231,0.0,0 STARLINK-5324,1 55677U 23021BB  23283.25002315 -.00877231  00000-0 -14290-1 0  9991,2 55677  70.0001 210.9031 0003468 270.3560 168.8830 15.54999028 37343,6780.292,92.605,404.509,399.806,0.0
55677.0,STARLINK-5324,PAYLOAD,2023-10-10 14:00:01,15.54334389,0.000331,70.0004,209.9872,264.1225,240.1196,-0.014547,-0.00871894,0.0,0 STARLINK-5324,1 55677U 23021BB  23283.58334491 -.00871894  00000-0 -14547-1 0  9994,2 55677  70.0004 209.9872 0003310 264.1225 240.1196 15.54334389  6036,6782.225,92.644,406.335,401.845,0.0
55677.0,STARLINK-5324,PAYLOAD,2023-10-10 22:00:01,15.53732597,0.0003346,70.0009,209.0722,261.633,306.9324,-0.01611,-0.00937845,0.0,0 STARLINK-5324,1 55677U 23021BB  23283.91668981 -.00937845  00000-0 -16110-1 0  9992,2 55677  70.0009 209.0722 0003346 261.6330 306.9324 15.53732597 37449,6783.976,92.68,408.111,403.571,0.0
55677.0,STARLINK-5324,PAYLOAD,2023-10-11 14:00:01,15.52378907,0.0003484,70.0006,207.2442,261.3895,73.3421,-0.015661,-0.00874013,0.0,0 STARLINK-5324,1 55677U 23021BB  23284.58334491 -.00874013  00000-0 -15661-1 0  9999,2 55677  70.0006 207.2442 0003484 261.3895  73.3421 15.52378907  6068,6787.92,92.761,412.149,407.42,0.0
55677.0,STARLINK-5324,PAYLOAD,2023-10-11 22:00:00,15.51639042,0.0003397,70.0011,206.3317,262.9173,133.7519,-0.010139,-0.00563548,0.0,0 STARLINK-5324,1 55677U 23021BB  23284.91667824 -.00563548  00000-0 -10139-1 0  9998,2 55677  70.0011 206.3317 0003397 262.9173 133.7519 15.51639042 37606,6790.077,92.805,414.249,409.636,0.0
